KUIPER-00053            
1 64513U 25134P   25302.81084923  .00005400  00000+0  73963-3 0  9990
2 64513  51.9018  81.5683 0002024 234.0337 126.0437 14.79770993 20838
KUIPER-00054            
1 64514U 25134Q   25303.33335648 -.00005528  00000+0 -56558-3 0  9996
2 64514  51.8950  74.7538 0004347 220.9180 129.8536 14.88374825  4103
KUIPER-00055            
1 64515U 25134R   25303.33335648 -.00786230  00000+0 -39930-1 0  9996
2 64515  51.8921  71.9047 0001438 336.3400  83.6449 15.19100655  4238
KUIPER-00056            
1 64516U 25134S   25303.23924995 -.00006167  00000+0 -78021-3 0  9995
2 64516  51.9004  80.9559 0002271 215.8892 144.1919 14.79955336 20885
KUIPER-00057            
1 64517U 25134T   25303.09599579  .00005044  00000+0  68940-3 0  9996
2 64517  51.8990  89.0915 0009073 203.7139 156.3406 14.79964820 20752
KUIPER-00058            
1 64518U 25134U   25303.10317663  .00014410  00000+0  19128-2 0  9991
2 64518  51.9003  82.9762 0004315 232.1316 127.9257 14.79982272 20847
KUIPER-00059            
1 64519U 25134V   25303.33335648 -.00932066  00000+0 -11516+0 0  9998
2 64519  51.9100  77.0280 0003463  33.0343  69.4986 14.85334565  4403
KUIPER-00060            
1 64520U 25134W   25303.10693785  .00001673  00000+0  24843-3 0  9994
2 64520  51.9020  79.0496 0005493  72.0604 288.0957 14.79955109 20888
